MESON-1                 
1 59131U 24043AK  26068.90019075  .00008544  00000+0  29748-3 0  9998
2 59131  97.5469 205.2839 0009545 227.1432 132.9007 15.29893494111890
STARLINK-35727          
1 66281U 25247S   26068.57891525  .00015616  00000+0  53868-3 0  9998
2 66281  53.1586 192.1730 0001461  32.0349 328.0740 15.30173698 21010
